{"fetched_at":"2026-07-07T07:58:12.386Z","source":"https://celestrak.org/NORAD/elements/gp.php?GROUP=planet&FORMAT=JSON","constellation":"superdove","records":[{"OBJECT_NAME":"FLOCK 4G-25","OBJECT_ID":"2025-009AP","EPOCH":"2026-07-06T16:25:57.372384","CLASSIFICATION_TYPE":"U","MEAN_MOTION":15.29887721,"ECCENTRICITY":0.0001611,"INCLINATION":97.4007,"RA_OF_ASC_NODE":269.6811,"ARG_OF_PERICENTER":183.4938,"MEAN_ANOMALY":176.6291,"EPHEMERIS_TYPE":0,"NORAD_CAT_ID":62646,"ELEMENT_SET_NO":999,"REV_AT_EPOCH":8190,"BSTAR":0.00031519,"MEAN_MOTION_DOT":0.00009048,"MEAN_MOTION_DDOT":0},{"OBJECT_NAME":"FLOCK 4G-23","OBJECT_ID":"2025-009AQ","EPOCH":"2026-07-06T19:35:21.875424","CLASSIFICATION_TYPE":"U","MEAN_MOTION":15.34288156,"ECCENTRICITY":0.0002694,"INCLINATION":97.3922,"RA_OF_ASC_NODE":269.4896,"ARG_OF_PERICENTER":188.9427,"MEAN_ANOMALY":171.1768,"EPHEMERIS_TYPE":0,"NORAD_CAT_ID":62647,"ELEMENT_SET_NO":999,"REV_AT_EPOCH":8193,"BSTAR":0.00091479,"MEAN_MOTION_DOT":0.00030375,"MEAN_MOTION_DDOT":0},{"OBJECT_NAME":"FLOCK 4G-34","OBJECT_ID":"2025-009AT","EPOCH":"2026-07-06T16:30:27.126144","CLASSIFICATION_TYPE":"U","MEAN_MOTION":15.2966237,"ECCENTRICITY":0.0001547,"INCLINATION":97.3957,"RA_OF_ASC_NODE":269.18,"ARG_OF_PERICENTER":184.1417,"MEAN_ANOMALY":175.9811,"EPHEMERIS_TYPE":0,"NORAD_CAT_ID":62650,"ELEMENT_SET_NO":999,"REV_AT_EPOCH":8189,"BSTAR":0.00030171,"MEAN_MOTION_DOT":0.00008597,"MEAN_MOTION_DDOT":0},{"OBJECT_NAME":"FLOCK 4G-21","OBJECT_ID":"2025-009AU","EPOCH":"2026-07-06T16:31:31.205568","CLASSIFICATION_TYPE":"U","MEAN_MOTION":15.32448642,"ECCENTRICITY":0.000232,"INCLINATION":97.3988,"RA_OF_ASC_NODE":270.1428,"ARG_OF_PERICENTER":215.9584,"MEAN_ANOMALY":144.1502,"EPHEMERIS_TYPE":0,"NORAD_CAT_ID":62651,"ELEMENT_SET_NO":999,"REV_AT_EPOCH":8194,"BSTAR":0.00094972,"MEAN_MOTION_DOT":0.00029762,"MEAN_MOTION_DDOT":0},{"OBJECT_NAME":"FLOCK 4G-31","OBJECT_ID":"2025-009AV","EPOCH":"2026-07-06T04:38:15.783072","CLASSIFICATION_TYPE":"U","MEAN_MOTION":15.29458987,"ECCENTRICITY":0.00010912,"INCLINATION":97.3961,"RA_OF_ASC_NODE":268.6617,"ARG_OF_PERICENTER":173.8295,"MEAN_ANOMALY":186.2959,"EPHEMERIS_TYPE":0,"NORAD_CAT_ID":62652,"ELEMENT_SET_NO":999,"REV_AT_EPOCH":8181,"BSTAR":0.0003711428,"MEAN_MOTION_DOT":0.00010529,"MEAN_MOTION_DDOT":0},{"OBJECT_NAME":"FLOCK 4G-4","OBJECT_ID":"2025-009BC","EPOCH":"2026-07-06T18:25:40.617408","CLASSIFICATION_TYPE":"U","MEAN_MOTION":15.31738738,"ECCENTRICITY":0.0003928,"INCLINATION":97.3941,"RA_OF_ASC_NODE":269.0166,"ARG_OF_PERICENTER":218.3344,"MEAN_ANOMALY":141.7619,"EPHEMERIS_TYPE":0,"NORAD_CAT_ID":62659,"ELEMENT_SET_NO":999,"REV_AT_EPOCH":13950,"BSTAR":0.0010096,"MEAN_MOTION_DOT":0.0003096,"MEAN_MOTION_DDOT":0},{"OBJECT_NAME":"FLOCK 4G-6","OBJECT_ID":"2025-009BD","EPOCH":"2026-07-06T16:59:33.272736","CLASSIFICATION_TYPE":"U","MEAN_MOTION":15.29869835,"ECCENTRICITY":0.0002086,"INCLINATION":97.3932,"RA_OF_ASC_NODE":269.0232,"ARG_OF_PERICENTER":239.3928,"MEAN_ANOMALY":120.7107,"EPHEMERIS_TYPE":0,"NORAD_CAT_ID":62660,"ELEMENT_SET_NO":999,"REV_AT_EPOCH":13948,"BSTAR":0.00028346,"MEAN_MOTION_DOT":0.00008124,"MEAN_MOTION_DDOT":0},{"OBJECT_NAME":"FLOCK 4G-2","OBJECT_ID":"2025-009BE","EPOCH":"2026-07-06T16:53:05.787744","CLASSIFICATION_TYPE":"U","MEAN_MOTION":15.30211304,"ECCENTRICITY":0.0002953,"INCLINATION":97.4001,"RA_OF_ASC_NODE":269.6493,"ARG_OF_PERICENTER":237.6071,"MEAN_ANOMALY":122.4884,"EPHEMERIS_TYPE":0,"NORAD_CAT_ID":62661,"ELEMENT_SET_NO":999,"REV_AT_EPOCH":13951,"BSTAR":0.0003123,"MEAN_MOTION_DOT":0.00009055,"MEAN_MOTION_DDOT":0},{"OBJECT_NAME":"FLOCK 4G-5","OBJECT_ID":"2025-009BG","EPOCH":"2026-07-06T18:24:34.106688","CLASSIFICATION_TYPE":"U","MEAN_MOTION":15.3080468,"ECCENTRICITY":0.0002687,"INCLINATION":97.402,"RA_OF_ASC_NODE":270.103,"ARG_OF_PERICENTER":212.327,"MEAN_ANOMALY":147.7806,"EPHEMERIS_TYPE":0,"NORAD_CAT_ID":62663,"ELEMENT_SET_NO":999,"REV_AT_EPOCH":8193,"BSTAR":0.00028311,"MEAN_MOTION_DOT":0.00008353,"MEAN_MOTION_DDOT":0},{"OBJECT_NAME":"FLOCK 4G-1","OBJECT_ID":"2025-009BK","EPOCH":"2026-07-06T19:38:34.291680","CLASSIFICATION_TYPE":"U","MEAN_MOTION":15.30072487,"ECCENTRICITY":0.0003204,"INCLINATION":97.4016,"RA_OF_ASC_NODE":269.7428,"ARG_OF_PERICENTER":233.1866,"MEAN_ANOMALY":126.9081,"EPHEMERIS_TYPE":0,"NORAD_CAT_ID":62666,"ELEMENT_SET_NO":999,"REV_AT_EPOCH":8191,"BSTAR":0.00027469,"MEAN_MOTION_DOT":0.0000792,"MEAN_MOTION_DDOT":0},{"OBJECT_NAME":"FLOCK 4G-14","OBJECT_ID":"2025-009BL","EPOCH":"2026-07-06T04:37:46.234272","CLASSIFICATION_TYPE":"U","MEAN_MOTION":15.29610526,"ECCENTRICITY":0.00033031,"INCLINATION":97.4017,"RA_OF_ASC_NODE":268.9222,"ARG_OF_PERICENTER":230.7288,"MEAN_ANOMALY":129.366,"EPHEMERIS_TYPE":0,"NORAD_CAT_ID":62667,"ELEMENT_SET_NO":999,"REV_AT_EPOCH":8180,"BSTAR":0.00039578039,"MEAN_MOTION_DOT":0.00011288,"MEAN_MOTION_DDOT":0},{"OBJECT_NAME":"FLOCK 4G-10","OBJECT_ID":"2025-009BP","EPOCH":"2026-07-06T17:27:54.419616","CLASSIFICATION_TYPE":"U","MEAN_MOTION":15.29715999,"ECCENTRICITY":0.0002985,"INCLINATION":97.3915,"RA_OF_ASC_NODE":268.7623,"ARG_OF_PERICENTER":251.2838,"MEAN_ANOMALY":108.8079,"EPHEMERIS_TYPE":0,"NORAD_CAT_ID":62670,"ELEMENT_SET_NO":999,"REV_AT_EPOCH":13952,"BSTAR":0.00027066,"MEAN_MOTION_DOT":0.00007717,"MEAN_MOTION_DDOT":0},{"OBJECT_NAME":"FLOCK 4G-36","OBJECT_ID":"2025-009BU","EPOCH":"2026-07-06T20:28:12.053856","CLASSIFICATION_TYPE":"U","MEAN_MOTION":15.2969085,"ECCENTRICITY":0.0003546,"INCLINATION":97.4005,"RA_OF_ASC_NODE":269.5012,"ARG_OF_PERICENTER":234.5813,"MEAN_ANOMALY":125.5096,"EPHEMERIS_TYPE":0,"NORAD_CAT_ID":62675,"ELEMENT_SET_NO":999,"REV_AT_EPOCH":8190,"BSTAR":0.00030452,"MEAN_MOTION_DOT":0.00008686,"MEAN_MOTION_DDOT":0},{"OBJECT_NAME":"FLOCK 4G-15","OBJECT_ID":"2025-009BX","EPOCH":"2026-07-06T17:30:30.567744","CLASSIFICATION_TYPE":"U","MEAN_MOTION":15.2977868,"ECCENTRICITY":0.0003767,"INCLINATION":97.4009,"RA_OF_ASC_NODE":269.5196,"ARG_OF_PERICENTER":230.7386,"MEAN_ANOMALY":129.352,"EPHEMERIS_TYPE":0,"NORAD_CAT_ID":62678,"ELEMENT_SET_NO":999,"REV_AT_EPOCH":13953,"BSTAR":0.00028467,"MEAN_MOTION_DOT":0.00008137,"MEAN_MOTION_DDOT":0},{"OBJECT_NAME":"FLOCK 4G-30","OBJECT_ID":"2025-009BY","EPOCH":"2026-07-06T16:39:49.574592","CLASSIFICATION_TYPE":"U","MEAN_MOTION":15.33494913,"ECCENTRICITY":0.0003478,"INCLINATION":97.3911,"RA_OF_ASC_NODE":268.9685,"ARG_OF_PERICENTER":225.6107,"MEAN_ANOMALY":134.4851,"EPHEMERIS_TYPE":0,"NORAD_CAT_ID":62679,"ELEMENT_SET_NO":999,"REV_AT_EPOCH":13953,"BSTAR":0.0010833,"MEAN_MOTION_DOT":0.00035122,"MEAN_MOTION_DDOT":0},{"OBJECT_NAME":"FLOCK 4G-18","OBJECT_ID":"2025-009BZ","EPOCH":"2026-07-06T16:46:43.992192","CLASSIFICATION_TYPE":"U","MEAN_MOTION":15.31781764,"ECCENTRICITY":0.0005281,"INCLINATION":97.4003,"RA_OF_ASC_NODE":269.3804,"ARG_OF_PERICENTER":241.417,"MEAN_ANOMALY":118.6541,"EPHEMERIS_TYPE":0,"NORAD_CAT_ID":62680,"ELEMENT_SET_NO":999,"REV_AT_EPOCH":13952,"BSTAR":0.0010709,"MEAN_MOTION_DOT":0.00032903,"MEAN_MOTION_DDOT":0}]}
